SOYUZ-MS 28             
1 66664U 25275A   26003.21020602  .00015578  00000+0  28954-3 0  9999
2 66664  51.6329  36.1624 0007549 334.7101  25.3517 15.49059586  1288
1998-067XS              
1 66906U 98067XS  26003.31156314  .00037222  00000+0  61459-3 0  9995
2 66906  51.6319  35.3399 0002432 316.8766  43.2033 15.51883905  4963
1998-067XT              
1 66907U 98067XT  26003.28542063  .00110564  00000+0  16243-2 0  9993
2 66907  51.6315  35.1658 0003919 359.3325   0.7660 15.54624527  4960
1998-067XU              
1 66908U 98067XU  26003.28434815  .00112629  00000+0  16558-2 0  9992
2 66908  51.6302  35.1574 0003954 354.5560   5.5387 15.54595585  4961
SILVERSAT               
1 66909U 98067XV  26003.28037573  .00121416  00000+0  17490-2 0  9993
2 66909  51.6307  35.1315 0004041   3.2126 356.8890 15.55112972  4961
1998-067XW              
1 66910U 98067XW  26003.27962623  .00113492  00000+0  16509-2 0  9992
2 66910  51.6308  35.1258 0003245 335.6957  24.3880 15.54884246  4964
1998-067XX              
1 66911U 98067XX  26003.27179831  .00132522  00000+0  18630-2 0  9996
2 66911  51.6317  35.0741 0003107 349.7998  10.2930 15.55730615  4959
1998-067XY              
1 66912U 98067XY  26003.29494123  .00085142  00000+0  13036-2 0  9993
2 66912  51.6316  35.2295 0003743 346.2968  13.7920 15.53613153  4952
