CCSDS_OMM_VERS = 2.0
CREATION_DATE  = 
ORIGINATOR     = 

OBJECT_NAME    = SOYUZ-MS 28
OBJECT_ID      = 2025-275A
CENTER_NAME    = EARTH
REF_FRAME      = TEME
TIME_SYSTEM    = UTC
MEAN_ELEMENT_THEORY = SGP/SGP4

EPOCH          = 2026-01-03T05:02:41.800128
MEAN_MOTION    = 15.49059586
ECCENTRICITY   = .00075493
INCLINATION    = 51.6329
RA_OF_ASC_NODE = 36.1624
ARG_OF_PERICENTER = 334.7101
MEAN_ANOMALY   = 25.3517

EPHEMERIS_TYPE = 0
CLASSIFICATION_TYPE = U
NORAD_CAT_ID   = 66664
ELEMENT_SET_NO = 999
REV_AT_EPOCH   = 128
BSTAR          = .28953765E-3
MEAN_MOTION_DOT = .15578E-3
MEAN_MOTION_DDOT = 0

CCSDS_OMM_VERS = 2.0
CREATION_DATE  = 
ORIGINATOR     = 

OBJECT_NAME    = 1998-067XS
OBJECT_ID      = 1998-067XS
CENTER_NAME    = EARTH
REF_FRAME      = TEME
TIME_SYSTEM    = UTC
MEAN_ELEMENT_THEORY = SGP/SGP4

EPOCH          = 2026-01-03T07:28:39.055296
MEAN_MOTION    = 15.51883905
ECCENTRICITY   = .00024326
INCLINATION    = 51.6319
RA_OF_ASC_NODE = 35.3399
ARG_OF_PERICENTER = 316.8766
MEAN_ANOMALY   = 43.2033

EPHEMERIS_TYPE = 0
CLASSIFICATION_TYPE = U
NORAD_CAT_ID   = 66906
ELEMENT_SET_NO = 999
REV_AT_EPOCH   = 496
BSTAR          = .61459065E-3
MEAN_MOTION_DOT = .37222E-3
MEAN_MOTION_DDOT = 0

CCSDS_OMM_VERS = 2.0
CREATION_DATE  = 
ORIGINATOR     = 

OBJECT_NAME    = 1998-067XT
OBJECT_ID      = 1998-067XT
CENTER_NAME    = EARTH
REF_FRAME      = TEME
TIME_SYSTEM    = UTC
MEAN_ELEMENT_THEORY = SGP/SGP4

EPOCH          = 2026-01-03T06:51:00.342432
MEAN_MOTION    = 15.54624527
ECCENTRICITY   = .0003919
INCLINATION    = 51.6315
RA_OF_ASC_NODE = 35.1658
ARG_OF_PERICENTER = 359.3325
MEAN_ANOMALY   = 0.7660

EPHEMERIS_TYPE = 0
CLASSIFICATION_TYPE = U
NORAD_CAT_ID   = 66907
ELEMENT_SET_NO = 999
REV_AT_EPOCH   = 496
BSTAR          = .16242696E-2
MEAN_MOTION_DOT = .110564E-2
MEAN_MOTION_DDOT = 0

CCSDS_OMM_VERS = 2.0
CREATION_DATE  = 
ORIGINATOR     = 

OBJECT_NAME    = 1998-067XU
OBJECT_ID      = 1998-067XU
CENTER_NAME    = EARTH
REF_FRAME      = TEME
TIME_SYSTEM    = UTC
MEAN_ELEMENT_THEORY = SGP/SGP4

EPOCH          = 2026-01-03T06:49:27.680160
MEAN_MOTION    = 15.54595585
ECCENTRICITY   = .00039546
INCLINATION    = 51.6302
RA_OF_ASC_NODE = 35.1574
ARG_OF_PERICENTER = 354.5560
MEAN_ANOMALY   = 5.5387

EPHEMERIS_TYPE = 0
CLASSIFICATION_TYPE = U
NORAD_CAT_ID   = 66908
ELEMENT_SET_NO = 999
REV_AT_EPOCH   = 496
BSTAR          = .16557899E-2
MEAN_MOTION_DOT = .112629E-2
MEAN_MOTION_DDOT = 0

CCSDS_OMM_VERS = 2.0
CREATION_DATE  = 
ORIGINATOR     = 

OBJECT_NAME    = SILVERSAT
OBJECT_ID      = 1998-067XV
CENTER_NAME    = EARTH
REF_FRAME      = TEME
TIME_SYSTEM    = UTC
MEAN_ELEMENT_THEORY = SGP/SGP4

EPOCH          = 2026-01-03T06:43:44.463072
MEAN_MOTION    = 15.55112972
ECCENTRICITY   = .00040415
INCLINATION    = 51.6307
RA_OF_ASC_NODE = 35.1315
ARG_OF_PERICENTER = 3.2126
MEAN_ANOMALY   = 356.8890

EPHEMERIS_TYPE = 0
CLASSIFICATION_TYPE = U
NORAD_CAT_ID   = 66909
ELEMENT_SET_NO = 999
REV_AT_EPOCH   = 496
BSTAR          = .17489732E-2
MEAN_MOTION_DOT = .121416E-2
MEAN_MOTION_DDOT = 0

CCSDS_OMM_VERS = 2.0
CREATION_DATE  = 
ORIGINATOR     = 

OBJECT_NAME    = 1998-067XW
OBJECT_ID      = 1998-067XW
CENTER_NAME    = EARTH
REF_FRAME      = TEME
TIME_SYSTEM    = UTC
MEAN_ELEMENT_THEORY = SGP/SGP4

EPOCH          = 2026-01-03T06:42:39.706272
MEAN_MOTION    = 15.54884246
ECCENTRICITY   = .00032454
INCLINATION    = 51.6308
RA_OF_ASC_NODE = 35.1258
ARG_OF_PERICENTER = 335.6957
MEAN_ANOMALY   = 24.3880

EPHEMERIS_TYPE = 0
CLASSIFICATION_TYPE = U
NORAD_CAT_ID   = 66910
ELEMENT_SET_NO = 999
REV_AT_EPOCH   = 496
BSTAR          = .16508509E-2
MEAN_MOTION_DOT = .113492E-2
MEAN_MOTION_DDOT = 0

CCSDS_OMM_VERS = 2.0
CREATION_DATE  = 
ORIGINATOR     = 

OBJECT_NAME    = 1998-067XX
OBJECT_ID      = 1998-067XX
CENTER_NAME    = EARTH
REF_FRAME      = TEME
TIME_SYSTEM    = UTC
MEAN_ELEMENT_THEORY = SGP/SGP4

EPOCH          = 2026-01-03T06:31:23.373984
MEAN_MOTION    = 15.55730615
ECCENTRICITY   = .00031077
INCLINATION    = 51.6317
RA_OF_ASC_NODE = 35.0741
ARG_OF_PERICENTER = 349.7998
MEAN_ANOMALY   = 10.2930

EPHEMERIS_TYPE = 0
CLASSIFICATION_TYPE = U
NORAD_CAT_ID   = 66911
ELEMENT_SET_NO = 999
REV_AT_EPOCH   = 495
BSTAR          = .18630405E-2
MEAN_MOTION_DOT = .132522E-2
MEAN_MOTION_DDOT = 0

CCSDS_OMM_VERS = 2.0
CREATION_DATE  = 
ORIGINATOR     = 

OBJECT_NAME    = 1998-067XY
OBJECT_ID      = 1998-067XY
CENTER_NAME    = EARTH
REF_FRAME      = TEME
TIME_SYSTEM    = UTC
MEAN_ELEMENT_THEORY = SGP/SGP4

EPOCH          = 2026-01-03T07:04:42.922272
MEAN_MOTION    = 15.53613153
ECCENTRICITY   = .0003743
INCLINATION    = 51.6316
RA_OF_ASC_NODE = 35.2295
ARG_OF_PERICENTER = 346.2968
MEAN_ANOMALY   = 13.7920

EPHEMERIS_TYPE = 0
CLASSIFICATION_TYPE = U
NORAD_CAT_ID   = 66912
ELEMENT_SET_NO = 999
REV_AT_EPOCH   = 495
BSTAR          = .1303602E-2
MEAN_MOTION_DOT = .85142E-3
MEAN_MOTION_DDOT = 0

